{
  "type": "FeatureCollection",
  "features": [
    {
      "type": "Feature",
      "properties": {
        "norad_id": 33939,
        "name": "COSMOS 2251 DEB",
        "group": "cosmos-2251-debris",
        "lat": -52.452397642727355,
        "lon": 68.98101229373859,
        "alt_km": 577.3646741051334,
        "timestamp": "2025-12-07T16:44:04.305872+00:00",
        "meta_object_name": "COSMOS 2251 DEB",
        "meta_object_id": "1993-036EU",
        "meta_epoch": "2025-12-06T13:45:23.177088",
        "meta_mean_motion": 14.99148851,
        "meta_eccentricity": 0.00029263,
        "meta_inclination": 74.0076,
        "meta_ra_of_asc_node": 93.1739,
        "meta_arg_of_pericenter": 93.6162,
        "meta_mean_anomaly": 266.5359,
        "meta_ephemeris_type": 0,
        "meta_classification_type": "U",
        "meta_norad_cat_id": 33939,
        "meta_element_set_no": 999,
        "meta_rev_at_epoch": 88660,
        "meta_bstar": 0.0058096473,
        "meta_mean_motion_dot": 0.00071385,
        "meta_mean_motion_ddot": 0,
        "tle_line1": "1 33939U 93036EU  25340.57318492  .00071385  00000+0  58096-2 0  9994",
        "tle_line2": "2 33939  74.0076  93.1739 0002926  93.6162 266.5359 14.99148851886605"
      },
      "geometry": {
        "type": "Point",
        "coordinates": [
          68.98101229373859,
          -52.452397642727355
        ]
      }
    },
    {
      "type": "Feature",
      "properties": {
        "norad_id": 33940,
        "name": "COSMOS 2251 DEB",
        "group": "cosmos-2251-debris",
        "lat": 73.16638050248929,
        "lon": -97.97405015554855,
        "alt_km": 695.9276202993651,
        "timestamp": "2025-12-07T16:44:04.305882+00:00",
        "meta_object_name": "COSMOS 2251 DEB",
        "meta_object_id": "1993-036EV",
        "meta_epoch": "2025-12-06T21:05:21.856416",
        "meta_mean_motion": 14.58706424,
        "meta_eccentricity": 0.00115734,
        "meta_inclination": 74.039,
        "meta_ra_of_asc_node": 154.6556,
        "meta_arg_of_pericenter": 234.1812,
        "meta_mean_anomaly": 244.5636,
        "meta_ephemeris_type": 0,
        "meta_classification_type": "U",
        "meta_norad_cat_id": 33940,
        "meta_element_set_no": 999,
        "meta_rev_at_epoch": 88508,
        "meta_bstar": 0.0018794954,
        "meta_mean_motion_dot": 8.759e-05,
        "meta_mean_motion_ddot": 0,
        "tle_line1": "1 33940U 93036EV  25340.87872519  .00008759  00000+0  18795-2 0  9991",
        "tle_line2": "2 33940  74.0390 154.6556 0011573 234.1812 244.5636 14.58706424885084"
      },
      "geometry": {
        "type": "Point",
        "coordinates": [
          -97.97405015554855,
          73.16638050248929
        ]
      }
    },
    {
      "type": "Feature",
      "properties": {
        "norad_id": 33942,
        "name": "COSMOS 2251 DEB",
        "group": "cosmos-2251-debris",
        "lat": -48.20704481116189,
        "lon": -94.56101754717835,
        "alt_km": 764.3201766205975,
        "timestamp": "2025-12-07T16:44:04.305892+00:00",
        "meta_object_name": "COSMOS 2251 DEB",
        "meta_object_id": "1993-036EX",
        "meta_epoch": "2025-12-06T22:53:56.645376",
        "meta_mean_motion": 14.37974663,
        "meta_eccentricity": 0.0020054,
        "meta_inclination": 74.0363,
        "meta_ra_of_asc_node": 285.4837,
        "meta_arg_of_pericenter": 9.9962,
        "meta_mean_anomaly": 53.9353,
        "meta_ephemeris_type": 0,
        "meta_classification_type": "U",
        "meta_norad_cat_id": 33942,
        "meta_element_set_no": 999,
        "meta_rev_at_epoch": 88051,
        "meta_bstar": 0.00043295527,
        "meta_mean_motion_dot": 1.286e-05,
        "meta_mean_motion_ddot": 0,
        "tle_line1": "1 33942U 93036EX  25340.95412784  .00001286  00000+0  43296-3 0  9999",
        "tle_line2": "2 33942  74.0363 285.4837 0020054   9.9962  53.9353 14.37974663880519"
      },
      "geometry": {
        "type": "Point",
        "coordinates": [
          -94.56101754717835,
          -48.20704481116189
        ]
      }
    },
    {
      "type": "Feature",
      "properties": {
        "norad_id": 33944,
        "name": "COSMOS 2251 DEB",
        "group": "cosmos-2251-debris",
        "lat": -15.99016574236707,
        "lon": 142.90801962144295,
        "alt_km": 830.2694533487338,
        "timestamp": "2025-12-07T16:44:04.305917+00:00",
        "meta_object_name": "COSMOS 2251 DEB",
        "meta_object_id": "1993-036EZ",
        "meta_epoch": "2025-12-06T23:24:46.285344",
        "meta_mean_motion": 14.37323925,
        "meta_eccentricity": 0.01119768,
        "meta_inclination": 74.04,
        "meta_ra_of_asc_node": 319.5314,
        "meta_arg_of_pericenter": 60.6504,
        "meta_mean_anomaly": 1.9857,
        "meta_ephemeris_type": 0,
        "meta_classification_type": "U",
        "meta_norad_cat_id": 33944,
        "meta_element_set_no": 999,
        "meta_rev_at_epoch": 87945,
        "meta_bstar": 0.00054590797,
        "meta_mean_motion_dot": 1.724e-05,
        "meta_mean_motion_ddot": 0,
        "tle_line1": "1 33944U 93036EZ  25340.97553571  .00001724  00000+0  54591-3 0  9990",
        "tle_line2": "2 33944  74.0400 319.5314 0111976  60.6504   1.9857 14.37323925879454"
      },
      "geometry": {
        "type": "Point",
        "coordinates": [
          142.90801962144295,
          -15.99016574236707
        ]
      }
    },
    {
      "type": "Feature",
      "properties": {
        "norad_id": 33945,
        "name": "COSMOS 2251 DEB",
        "group": "cosmos-2251-debris",
        "lat": 36.3002907414888,
        "lon": -32.34842884202164,
        "alt_km": 758.0704335306809,
        "timestamp": "2025-12-07T16:44:04.305930+00:00",
        "meta_object_name": "COSMOS 2251 DEB",
        "meta_object_id": "1993-036FA",
        "meta_epoch": "2025-12-06T22:08:55.869504",
        "meta_mean_motion": 14.34593277,
        "meta_eccentricity": 0.0021682,
        "meta_inclination": 74.0294,
        "meta_ra_of_asc_node": 316.9262,
        "meta_arg_of_pericenter": 45.0451,
        "meta_mean_anomaly": 315.2454,
        "meta_ephemeris_type": 0,
        "meta_classification_type": "U",
        "meta_norad_cat_id": 33945,
        "meta_element_set_no": 999,
        "meta_rev_at_epoch": 87932,
        "meta_bstar": 0.00024477966,
        "meta_mean_motion_dot": 6.67e-06,
        "meta_mean_motion_ddot": 0,
        "tle_line1": "1 33945U 93036FA  25340.92286886  .00000667  00000+0  24478-3 0  9994",
        "tle_line2": "2 33945  74.0294 316.9262 0021682  45.0451 315.2454 14.34593277879327"
      },
      "geometry": {
        "type": "Point",
        "coordinates": [
          -32.34842884202164,
          36.3002907414888
        ]
      }
    },
    {
      "type": "Feature",
      "properties": {
        "norad_id": 33948,
        "name": "COSMOS 2251 DEB",
        "group": "cosmos-2251-debris",
        "lat": -46.01662951958793,
        "lon": 151.6411156908464,
        "alt_km": 794.8167930762083,
        "timestamp": "2025-12-07T16:44:04.305940+00:00",
        "meta_object_name": "COSMOS 2251 DEB",
        "meta_object_id": "1993-036FD",
        "meta_epoch": "2025-12-06T22:57:00.664416",
        "meta_mean_motion": 14.35618241,
        "meta_eccentricity": 0.00224936,
        "meta_inclination": 74.0351,
        "meta_ra_of_asc_node": 315.746,
        "meta_arg_of_pericenter": 33.2066,
        "meta_mean_anomaly": 327.0493,
        "meta_ephemeris_type": 0,
        "meta_classification_type": "U",
        "meta_norad_cat_id": 33948,
        "meta_element_set_no": 999,
        "meta_rev_at_epoch": 87940,
        "meta_bstar": 0.00034856549,
        "meta_mean_motion_dot": 9.82e-06,
        "meta_mean_motion_ddot": 0,
        "tle_line1": "1 33948U 93036FD  25340.95625769  .00000982  00000+0  34857-3 0  9999",
        "tle_line2": "2 33948  74.0351 315.7460 0022493  33.2066 327.0493 14.35618241879406"
      },
      "geometry": {
        "type": "Point",
        "coordinates": [
          151.6411156908464,
          -46.01662951958793
        ]
      }
    },
    {
      "type": "Feature",
      "properties": {
        "norad_id": 33971,
        "name": "COSMOS 2251 DEB",
        "group": "cosmos-2251-debris",
        "lat": -40.03003015282252,
        "lon": 96.97590250270683,
        "alt_km": 775.9233562967056,
        "timestamp": "2025-12-07T16:44:04.305951+00:00",
        "meta_object_name": "COSMOS 2251 DEB",
        "meta_object_id": "1993-036FE",
        "meta_epoch": "2025-12-06T11:54:35.179200",
        "meta_mean_motion": 14.39707639,
        "meta_eccentricity": 0.00182451,
        "meta_inclination": 74.025,
        "meta_ra_of_asc_node": 265.2713,
        "meta_arg_of_pericenter": 6.8813,
        "meta_mean_anomaly": 112.7657,
        "meta_ephemeris_type": 0,
        "meta_classification_type": "U",
        "meta_norad_cat_id": 33971,
        "meta_element_set_no": 999,
        "meta_rev_at_epoch": 88049,
        "meta_bstar": 0.00060468696,
        "meta_mean_motion_dot": 1.871e-05,
        "meta_mean_motion_ddot": 0,
        "tle_line1": "1 33971U 93036FE  25340.49624050  .00001871  00000+0  60469-3 0  9992",
        "tle_line2": "2 33971  74.0250 265.2713 0018245   6.8813 112.7657 14.39707639880492"
      },
      "geometry": {
        "type": "Point",
        "coordinates": [
          96.97590250270683,
          -40.03003015282252
        ]
      }
    }
  ]
}